OBJECT_NAME,OBJECT_ID,EPOCH,MEAN_MOTION,ECCENTRICITY,INCLINATION,RA_OF_ASC_NODE,ARG_OF_PERICENTER,MEAN_ANOMALY,EPHEMERIS_TYPE,CLASSIFICATION_TYPE,NORAD_CAT_ID,ELEMENT_SET_NO,REV_AT_EPOCH,BSTAR,MEAN_MOTION_DOT,MEAN_MOTION_DDOT
BRO-15,2024-149CP,2026-07-15T03:11:00.420864,14.96221586,.0007792,97.6792,270.9837,4.6260,355.5032,0,U,60553,999,10418,.26747E-4,.245E-5,0
UM5-RIBAT,2024-149CQ,2026-07-15T03:14:10.169952,15.01217968,.0000722,97.6606,273.5562,351.8805,8.2407,0,U,60554,999,10438,.97941E-4,.1198E-4,0
UM5-EOSAT,2024-149CR,2026-07-15T03:48:42.266592,15.01728593,.0009117,97.6776,274.5816,35.6763,324.5069,0,U,60555,999,10441,.15172E-3,.1915E-4,0
LASARSAT,2024-247Q,2026-07-14T22:22:35.051232,15.48033197,.0007354,44.9739,106.1046,164.5391,195.5725,0,U,62391,999,8761,.40881E-3,.21592E-3,0
CROCUBE,2024-247T,2026-07-15T02:05:50.090784,15.50189566,.0007544,44.9722,102.0802,171.5148,188.5872,0,U,62394,999,8767,.4537E-3,.25934E-3,0
TEVEL2-4,2025-052D,2026-07-15T03:30:38.473632,15.35565165,.000354,97.3870,92.5984,51.9364,308.2199,0,U,63213,999,7440,.31215E-3,.10715E-3,0
TEVEL2-5,2025-052E,2026-07-15T04:04:51.939840,15.35379345,.0003594,97.3866,92.5619,53.2255,306.9318,0,U,63214,999,7440,.30278E-3,.10329E-3,0
TEVEL2-6,2025-052F,2026-07-14T15:52:44.170176,15.35331616,.00036805,97.3876,92.0373,56.3552,303.8042,0,U,63215,999,7432,.32053588E-3,.10923E-3,0
TEVEL2-1,2025-052H,2026-07-14T15:14:51.352512,15.34761887,.0004319,97.3847,91.6018,61.6960,298.4718,0,U,63217,999,7430,.2955724E-3,.9885E-4,0
TEVEL2-3,2025-052J,2026-07-15T03:36:40.341024,15.34835081,.000401,97.3848,92.1430,61.9353,298.2295,0,U,63218,999,7438,.30378E-3,.10185E-3,0
TEVEL2-2,2025-052K,2026-07-15T03:46:07.684032,15.34784029,.0004324,97.3840,92.1268,60.5637,299.6037,0,U,63219,999,7438,.30238E-3,.10122E-3,0
TEVEL2-9,2025-052AD,2026-07-15T04:06:36.235008,15.32732268,.0007676,97.3907,91.4540,57.3329,302.8652,0,U,63237,999,7431,.29751E-3,.9336E-4,0
TEVEL2-7,2025-052AE,2026-07-15T03:39:30.098016,15.32415280,.0007756,97.3906,91.3390,56.8395,303.3590,0,U,63238,999,7430,.29113E-3,.9043E-4,0
TEVEL2-8,2025-052AF,2026-07-15T03:51:46.384128,15.32400496,.0007797,97.3906,91.3237,57.8563,302.3435,0,U,63239,999,7430,.28216E-3,.8758E-4,0
FORESAIL-1 PRIME,2025-276DS,2026-07-15T03:04:49.616256,15.18938050,.0002884,97.4194,268.8900,44.4215,315.7250,0,U,66778,999,3464,.12246E-3,.249E-4,0
